ONEWEB-0258             
1 48976U 21060K   25250.85164003  .00000075  00000+0  16341-3 0  9993
2 48976  87.8986 285.0675 0001900  96.9027 263.2320 13.16595235202448
ONEWEB-0259             
1 48977U 21060L   25250.84531135  .00000128  00000+0  30185-3 0  9998
2 48977  87.8990 285.0547 0001723  95.0839 265.0489 13.16594199202473
ONEWEB-0260             
1 48978U 21060M   25250.83659894  .00000038  00000+0  65636-4 0  9991
2 48978  87.8982 285.0797 0002142  80.5970 279.5403 13.16594407202459
ONEWEB-0261             
1 48979U 21060N   25250.80652178 -.00000011  00000+0 -61736-4 0  9997
2 48979  87.8984 285.0874 0001583  82.6025 277.5286 13.16594217202502
ONEWEB-0262             
1 48980U 21060P   25250.86272406  .00000116  00000+0  26961-3 0  9991
2 48980  87.8993 285.0400 0001635 101.2281 258.9034 13.16595600202476
ONEWEB-0263             
1 48981U 21060Q   25250.51441018 -.00000036  00000+0 -12872-3 0  9990
2 48981  87.8987 285.1320 0001444  89.0661 271.0636 13.16594247202396
ONEWEB-0264             
1 48982U 21060R   25250.85559240  .00000131  00000+0  30811-3 0  9992
2 48982  87.8983 285.0687 0001876  85.5818 274.5527 13.16593031202445
ONEWEB-0266             
1 48984U 21060T   25250.80098235  .00000066  00000+0  13817-3 0  9995
2 48984  87.8992 285.0560 0001906  99.0878 261.0469 13.16594886202420
